{"type":"FeatureCollection","features":[{"type":"Feature","geometry":{"type":"Polygon","coordinates":[[[14.762425,50.102521],[14.763051,50.102719],[14.763052,50.102588],[14.763171,50.102438],[14.763329,50.102096],[14.763365,50.101722],[14.763271,50.101149],[14.763114,50.100741],[14.762718,50.100429],[14.761923,50.099886],[14.761182,50.099398],[14.761412,50.099201],[14.761637,50.099054],[14.761635,50.099063],[14.764229,50.099247],[14.764199,50.099305],[14.764445,50.099205],[14.764607,50.099102],[14.764844,50.099044],[14.765169,50.098843],[14.765645,50.098623],[14.765912,50.098475],[14.766372,50.098151],[14.766353,50.098146],[14.766422,50.098037],[14.766846,50.097895],[14.767167,50.097702],[14.767196,50.097662],[14.767349,50.097718],[14.767612,50.097268],[14.768099,50.096688],[14.768254,50.096459],[14.768082,50.096424],[14.768281,50.096011],[14.76845,50.095565],[14.774207,50.096975],[14.774492,50.096495],[14.776274,50.096933],[14.776409,50.096194],[14.776436,50.095942],[14.776699,50.095157],[14.777091,50.095203],[14.777646,50.095382],[14.778337,50.095506],[14.778939,50.095642],[14.779847,50.09569],[14.779986,50.094925],[14.780108,50.094477],[14.77972,50.094423],[14.779028,50.094291],[14.778675,50.094211],[14.778058,50.094045],[14.777123,50.093926],[14.777395,50.093021],[14.777652,50.092228],[14.777769,50.091761],[14.777965,50.091287],[14.778048,50.090995],[14.777013,50.090783],[14.775907,50.090543],[14.7762,50.089122],[14.776347,50.085959],[14.776585,50.085992],[14.776599,50.085914],[14.777783,50.086061],[14.777755,50.08613],[14.778013,50.086181],[14.778486,50.08631],[14.778486,50.087118],[14.779027,50.087101],[14.779039,50.086829],[14.779035,50.08651],[14.779055,50.086492],[14.779051,50.085865],[14.778941,50.085046],[14.778861,50.084571],[14.778855,50.084219],[14.77844,50.083956],[14.778123,50.083812],[14.777748,50.083709],[14.777251,50.083589],[14.777355,50.082929],[14.777396,50.082561],[14.77748,50.08207],[14.777484,50.081567],[14.777829,50.081549],[14.777906,50.0815],[14.777824,50.081514],[14.776724,50.08156],[14.775758,50.081514],[14.774831,50.081419],[14.774415,50.081354],[14.774047,50.081266],[14.773803,50.081169],[14.775765,50.077368],[14.776035,50.077379],[14.776353,50.077413],[14.776743,50.077442],[14.777933,50.077513],[14.778194,50.077222],[14.779693,50.073893],[14.779544,50.073722],[14.778987,50.073025],[14.77892,50.07297],[14.77808,50.072812],[14.77791,50.07276],[14.777836,50.07268],[14.777814,50.072585],[14.777832,50.071898],[14.777809,50.071799],[14.777929,50.071581],[14.777637,50.071582],[14.775186,50.071152],[14.77519,50.070998],[14.775133,50.071003],[14.774952,50.070984],[14.774216,50.070965],[14.773941,50.071013],[14.773362,50.07102],[14.772844,50.070982],[14.772827,50.070947],[14.772209,50.070998],[14.771805,50.071015],[14.771722,50.071],[14.770396,50.0712],[14.769787,50.071278],[14.768256,50.071384],[14.768116,50.071078],[14.764535,50.071204],[14.76461,50.072043],[14.761472,50.072132],[14.761322,50.071972],[14.761254,50.071819],[14.759949,50.071597],[14.758114,50.071311],[14.758116,50.071287],[14.757483,50.07118],[14.75699,50.071128],[14.756224,50.071035],[14.755862,50.070952],[14.755483,50.070894],[14.754841,50.070861],[14.754465,50.070885],[14.753837,50.07098],[14.752959,50.071166],[14.751848,50.071292],[14.751112,50.071342],[14.750896,50.071327],[14.750789,50.071288],[14.750676,50.071258],[14.749578,50.071046],[14.748634,50.070823],[14.748509,50.070799],[14.747835,50.070544],[14.747712,50.070504],[14.747221,50.070942],[14.74665,50.070631],[14.74588,50.07017],[14.744847,50.070295],[14.744475,50.070272],[14.742956,50.070131],[14.742176,50.070087],[14.741879,50.070117],[14.740968,50.070299],[14.740623,50.070416],[14.739318,50.070624],[14.739118,50.070664],[14.738893,50.070722],[14.738515,50.070881],[14.738498,50.070995],[14.738561,50.071184],[14.738722,50.072437],[14.73883,50.072978],[14.738834,50.073331],[14.738805,50.073629],[14.740158,50.073873],[14.740142,50.07401],[14.740163,50.074035],[14.740247,50.074086],[14.740364,50.074142],[14.740511,50.074184],[14.741282,50.074349],[14.741277,50.074454],[14.741231,50.074549],[14.741218,50.07475],[14.741217,50.075191],[14.741229,50.075475],[14.741383,50.07548],[14.74142,50.075813],[14.741486,50.075962],[14.741589,50.076112],[14.741733,50.077133],[14.742028,50.077135],[14.742104,50.077792],[14.742182,50.078171],[14.742216,50.07854],[14.742546,50.078532],[14.742532,50.07859],[14.743222,50.078554],[14.744,50.078556],[14.744015,50.078608],[14.744298,50.078641],[14.744247,50.079258],[14.744273,50.079488],[14.744963,50.07954],[14.746344,50.079594],[14.746389,50.079443],[14.747058,50.079494],[14.747267,50.079521],[14.747585,50.079585],[14.748109,50.079722],[14.748627,50.07984],[14.749092,50.079945],[14.749736,50.08007],[14.750123,50.080163],[14.750122,50.080176],[14.749789,50.080688],[14.749438,50.081294],[14.749394,50.081402],[14.749316,50.081402],[14.749157,50.081822],[14.74913,50.081978],[14.747966,50.081885],[14.746886,50.081776],[14.746014,50.081645],[14.745824,50.082065],[14.744279,50.081928],[14.74416,50.082594],[14.744222,50.08265],[14.744186,50.082987],[14.744122,50.083301],[14.744063,50.083431],[14.74352,50.083372],[14.743257,50.083322],[14.742773,50.083206],[14.741936,50.083037],[14.741147,50.082915],[14.739417,50.082719],[14.739272,50.083022],[14.739072,50.083716],[14.738532,50.083636],[14.737813,50.083636],[14.737433,50.083626],[14.73731,50.083645],[14.737212,50.08363],[14.736949,50.083635],[14.73676,50.083605],[14.736679,50.082996],[14.736581,50.082463],[14.736593,50.081878],[14.736308,50.081858],[14.736305,50.081767],[14.735187,50.081729],[14.734476,50.081738],[14.734447,50.081964],[14.733568,50.082011],[14.73336,50.082463],[14.733346,50.082578],[14.73322,50.083014],[14.733186,50.083252],[14.733232,50.083742],[14.733291,50.083849],[14.733641,50.083848],[14.734903,50.083738],[14.734905,50.083897],[14.734778,50.084782],[14.734791,50.085137],[14.734143,50.085239],[14.733587,50.085367],[14.732886,50.085557],[14.732518,50.085682],[14.731968,50.085973],[14.731652,50.086129],[14.730858,50.086469],[14.730644,50.086684],[14.73052,50.086843],[14.730663,50.087142],[14.730925,50.087566],[14.73131,50.087907],[14.731701,50.088196],[14.732096,50.08836],[14.732393,50.088657],[14.732693,50.088929],[14.733168,50.08918],[14.734325,50.089895],[14.735167,50.090135],[14.735795,50.090271],[14.73564,50.090592],[14.735893,50.090634],[14.736019,50.090471],[14.73626,50.090431],[14.736525,50.090536],[14.736662,50.090706],[14.736872,50.090779],[14.737009,50.090928],[14.737129,50.091137],[14.737345,50.0912],[14.737505,50.091183],[14.737681,50.091246],[14.737724,50.09136],[14.737717,50.091413],[14.737897,50.091665],[14.73793,50.091762],[14.737654,50.091887],[14.737722,50.092063],[14.73812,50.092312],[14.738461,50.092489],[14.738351,50.092501],[14.73817,50.092662],[14.737989,50.092802],[14.738186,50.092859],[14.737761,50.093093],[14.737292,50.093615],[14.736972,50.093845],[14.73645,50.09415],[14.736349,50.094186],[14.736321,50.094249],[14.736308,50.094326],[14.736504,50.094346],[14.736887,50.094406],[14.737562,50.094644],[14.737995,50.094731],[14.738222,50.094845],[14.738421,50.094905],[14.738845,50.09501],[14.739657,50.095385],[14.739975,50.09548],[14.740469,50.095658],[14.741254,50.095848],[14.741919,50.095969],[14.742609,50.096042],[14.74311,50.096123],[14.743389,50.096152],[14.743792,50.096209],[14.74439,50.096347],[14.744847,50.096422],[14.745096,50.09645],[14.745655,50.096486],[14.747035,50.096683],[14.747557,50.096764],[14.748325,50.096922],[14.74911,50.097133],[14.749574,50.097241],[14.752455,50.098053],[14.753707,50.098328],[14.754043,50.098389],[14.754076,50.098351],[14.754916,50.098538],[14.755768,50.098713],[14.757025,50.09892],[14.757034,50.09888],[14.759034,50.09913],[14.75942,50.099077],[14.75947,50.099317],[14.759393,50.09976],[14.759398,50.099971],[14.759526,50.100355],[14.759792,50.100729],[14.760917,50.102063],[14.761026,50.102221],[14.761927,50.102436],[14.762425,50.102521]]]},"properties":{"typ":"obec","kod":533785,"nazev":"Tuklaty","geom_src":"OriginalniHranice"}},{"type":"Feature","geometry":{"type":"Polygon","coordinates":[[[14.762425,50.102521],[14.763051,50.102719],[14.763052,50.102588],[14.763171,50.102438],[14.763329,50.102096],[14.763365,50.101722],[14.763271,50.101149],[14.763114,50.100741],[14.762718,50.100429],[14.761923,50.099886],[14.761182,50.099398],[14.761412,50.099201],[14.761637,50.099054],[14.761635,50.099063],[14.764229,50.099247],[14.764199,50.099305],[14.764445,50.099205],[14.764607,50.099102],[14.764844,50.099044],[14.765169,50.098843],[14.765645,50.098623],[14.765912,50.098475],[14.766372,50.098151],[14.766353,50.098146],[14.766422,50.098037],[14.766846,50.097895],[14.767167,50.097702],[14.767178,50.097687],[14.765676,50.097232],[14.764738,50.09698],[14.763507,50.096635],[14.763776,50.096349],[14.764245,50.095734],[14.764974,50.094836],[14.76551,50.09415],[14.76559,50.094086],[14.765993,50.09347],[14.766228,50.093186],[14.767051,50.092062],[14.765538,50.091608],[14.76568,50.091521],[14.76603,50.09136],[14.766609,50.091],[14.766692,50.0908],[14.766732,50.090755],[14.763558,50.090152],[14.763049,50.090006],[14.762836,50.089913],[14.762097,50.089513],[14.763057,50.088659],[14.763709,50.088318],[14.763428,50.088047],[14.763248,50.087838],[14.76014,50.086448],[14.760084,50.086444],[14.760092,50.086382],[14.760085,50.08627],[14.756949,50.086596],[14.755962,50.085083],[14.755925,50.085054],[14.756447,50.084776],[14.75598,50.084504],[14.7526,50.083337],[14.752119,50.082798],[14.751517,50.082943],[14.751007,50.083042],[14.750295,50.083132],[14.749996,50.083154],[14.744214,50.082728],[14.744186,50.082987],[14.744122,50.083301],[14.744063,50.083431],[14.74352,50.083372],[14.743257,50.083322],[14.742773,50.083206],[14.741936,50.083037],[14.741147,50.082915],[14.739417,50.082719],[14.739272,50.083022],[14.739072,50.083716],[14.738532,50.083636],[14.737813,50.083636],[14.737433,50.083626],[14.73731,50.083645],[14.737212,50.08363],[14.736949,50.083635],[14.73676,50.083605],[14.736679,50.082996],[14.736581,50.082463],[14.736593,50.081878],[14.736308,50.081858],[14.736305,50.081767],[14.735187,50.081729],[14.734476,50.081738],[14.734447,50.081964],[14.733568,50.082011],[14.73336,50.082463],[14.733346,50.082578],[14.73322,50.083014],[14.733186,50.083252],[14.733232,50.083742],[14.733291,50.083849],[14.733641,50.083848],[14.734903,50.083738],[14.734905,50.083897],[14.734778,50.084782],[14.734791,50.085137],[14.734143,50.085239],[14.733587,50.085367],[14.732886,50.085557],[14.732518,50.085682],[14.731968,50.085973],[14.731652,50.086129],[14.730858,50.086469],[14.730644,50.086684],[14.73052,50.086843],[14.730663,50.087142],[14.730925,50.087566],[14.73131,50.087907],[14.731701,50.088196],[14.732096,50.08836],[14.732393,50.088657],[14.732693,50.088929],[14.733168,50.08918],[14.734325,50.089895],[14.735167,50.090135],[14.735795,50.090271],[14.73564,50.090592],[14.735893,50.090634],[14.736019,50.090471],[14.73626,50.090431],[14.736525,50.090536],[14.736662,50.090706],[14.736872,50.090779],[14.737009,50.090928],[14.737129,50.091137],[14.737345,50.0912],[14.737505,50.091183],[14.737681,50.091246],[14.737724,50.09136],[14.737717,50.091413],[14.737897,50.091665],[14.73793,50.091762],[14.737654,50.091887],[14.737722,50.092063],[14.73812,50.092312],[14.738461,50.092489],[14.738351,50.092501],[14.73817,50.092662],[14.737989,50.092802],[14.738186,50.092859],[14.737761,50.093093],[14.737292,50.093615],[14.736972,50.093845],[14.73645,50.09415],[14.736349,50.094186],[14.736321,50.094249],[14.736308,50.094326],[14.736504,50.094346],[14.736887,50.094406],[14.737562,50.094644],[14.737995,50.094731],[14.738222,50.094845],[14.738421,50.094905],[14.738845,50.09501],[14.739657,50.095385],[14.739975,50.09548],[14.740469,50.095658],[14.741254,50.095848],[14.741919,50.095969],[14.742609,50.096042],[14.74311,50.096123],[14.743389,50.096152],[14.743792,50.096209],[14.74439,50.096347],[14.744847,50.096422],[14.745096,50.09645],[14.745655,50.096486],[14.747035,50.096683],[14.747557,50.096764],[14.748325,50.096922],[14.74911,50.097133],[14.749574,50.097241],[14.752455,50.098053],[14.753707,50.098328],[14.754043,50.098389],[14.754076,50.098351],[14.754916,50.098538],[14.755768,50.098713],[14.757025,50.09892],[14.757034,50.09888],[14.759034,50.09913],[14.75942,50.099077],[14.75947,50.099317],[14.759393,50.09976],[14.759398,50.099971],[14.759526,50.100355],[14.759792,50.100729],[14.760917,50.102063],[14.761026,50.102221],[14.761927,50.102436],[14.762425,50.102521]]]},"properties":{"typ":"ku","kod":771414,"nazev":"Tlustovousy","geom_src":"OriginalniHranice"}},{"type":"Feature","geometry":{"type":"Polygon","coordinates":[[[14.767178,50.097687],[14.767196,50.097662],[14.767349,50.097718],[14.767612,50.097268],[14.768099,50.096688],[14.768254,50.096459],[14.768082,50.096424],[14.768281,50.096011],[14.76845,50.095565],[14.774207,50.096975],[14.774492,50.096495],[14.776274,50.096933],[14.776409,50.096194],[14.776436,50.095942],[14.776699,50.095157],[14.777091,50.095203],[14.777646,50.095382],[14.778337,50.095506],[14.778939,50.095642],[14.779847,50.09569],[14.779986,50.094925],[14.780108,50.094477],[14.77972,50.094423],[14.779028,50.094291],[14.778675,50.094211],[14.778058,50.094045],[14.777123,50.093926],[14.777395,50.093021],[14.777652,50.092228],[14.777769,50.091761],[14.777965,50.091287],[14.778048,50.090995],[14.777013,50.090783],[14.775907,50.090543],[14.7762,50.089122],[14.776347,50.085959],[14.776585,50.085992],[14.776599,50.085914],[14.777783,50.086061],[14.777755,50.08613],[14.778013,50.086181],[14.778486,50.08631],[14.778486,50.087118],[14.779027,50.087101],[14.779039,50.086829],[14.779035,50.08651],[14.779055,50.086492],[14.779051,50.085865],[14.778941,50.085046],[14.778861,50.084571],[14.778855,50.084219],[14.77844,50.083956],[14.778123,50.083812],[14.777748,50.083709],[14.777251,50.083589],[14.777355,50.082929],[14.777396,50.082561],[14.77748,50.08207],[14.777484,50.081567],[14.777829,50.081549],[14.777906,50.0815],[14.777824,50.081514],[14.776724,50.08156],[14.775758,50.081514],[14.774831,50.081419],[14.774415,50.081354],[14.774047,50.081266],[14.773803,50.081169],[14.775765,50.077368],[14.776035,50.077379],[14.776353,50.077413],[14.776743,50.077442],[14.777933,50.077513],[14.778194,50.077222],[14.779682,50.073922],[14.779693,50.073893],[14.779544,50.073722],[14.778987,50.073025],[14.77892,50.07297],[14.77808,50.072812],[14.77791,50.07276],[14.777836,50.07268],[14.777814,50.072585],[14.777832,50.071898],[14.777809,50.071799],[14.777929,50.071581],[14.777637,50.071582],[14.775186,50.071152],[14.77519,50.070998],[14.775133,50.071003],[14.774952,50.070984],[14.774216,50.070965],[14.773941,50.071013],[14.773362,50.07102],[14.772844,50.070982],[14.772827,50.070947],[14.772209,50.070998],[14.771805,50.071015],[14.771722,50.071],[14.770396,50.0712],[14.769787,50.071278],[14.768256,50.071384],[14.768116,50.071078],[14.764535,50.071204],[14.76461,50.072043],[14.761472,50.072132],[14.761322,50.071972],[14.761254,50.071819],[14.759949,50.071597],[14.758114,50.071311],[14.758116,50.071287],[14.757483,50.07118],[14.75699,50.071128],[14.756224,50.071035],[14.755862,50.070952],[14.755483,50.070894],[14.754841,50.070861],[14.754465,50.070885],[14.753837,50.07098],[14.752959,50.071166],[14.751848,50.071292],[14.751112,50.071342],[14.750896,50.071327],[14.750789,50.071288],[14.750676,50.071258],[14.749578,50.071046],[14.748634,50.070823],[14.748509,50.070799],[14.747835,50.070544],[14.747712,50.070504],[14.747221,50.070942],[14.74665,50.070631],[14.74588,50.07017],[14.744847,50.070295],[14.744475,50.070272],[14.742956,50.070131],[14.742176,50.070087],[14.741879,50.070117],[14.740968,50.070299],[14.740623,50.070416],[14.739318,50.070624],[14.739118,50.070664],[14.738893,50.070722],[14.738515,50.070881],[14.738498,50.070995],[14.738561,50.071184],[14.738722,50.072437],[14.73883,50.072978],[14.738834,50.073331],[14.738805,50.073629],[14.740158,50.073873],[14.740142,50.07401],[14.740163,50.074035],[14.740247,50.074086],[14.740364,50.074142],[14.740511,50.074184],[14.741282,50.074349],[14.741277,50.074454],[14.741231,50.074549],[14.741218,50.07475],[14.741217,50.075191],[14.741229,50.075475],[14.741383,50.07548],[14.74142,50.075813],[14.741486,50.075962],[14.741589,50.076112],[14.741733,50.077133],[14.742028,50.077135],[14.742104,50.077792],[14.742182,50.078171],[14.742216,50.07854],[14.742546,50.078532],[14.742532,50.07859],[14.743222,50.078554],[14.744,50.078556],[14.744015,50.078608],[14.744298,50.078641],[14.744247,50.079258],[14.744273,50.079488],[14.744963,50.07954],[14.746344,50.079594],[14.746389,50.079443],[14.747058,50.079494],[14.747267,50.079521],[14.747585,50.079585],[14.748109,50.079722],[14.748627,50.07984],[14.749092,50.079945],[14.749736,50.08007],[14.750123,50.080163],[14.749789,50.080688],[14.749438,50.081294],[14.749394,50.081402],[14.749316,50.081402],[14.749157,50.081822],[14.74913,50.081978],[14.747966,50.081885],[14.746886,50.081776],[14.746014,50.081645],[14.745824,50.082065],[14.744279,50.081928],[14.74416,50.082594],[14.744222,50.08265],[14.744214,50.082728],[14.749996,50.083154],[14.750295,50.083132],[14.751007,50.083042],[14.751517,50.082943],[14.752119,50.082798],[14.7526,50.083337],[14.75598,50.084504],[14.756447,50.084776],[14.755925,50.085054],[14.755962,50.085083],[14.756949,50.086596],[14.760085,50.08627],[14.760092,50.086382],[14.760084,50.086444],[14.76014,50.086448],[14.763248,50.087838],[14.763428,50.088047],[14.763709,50.088318],[14.763057,50.088659],[14.762097,50.089513],[14.762836,50.089913],[14.763049,50.090006],[14.763558,50.090152],[14.766732,50.090755],[14.766692,50.0908],[14.766609,50.091],[14.76603,50.09136],[14.76568,50.091521],[14.765538,50.091608],[14.767051,50.092062],[14.766228,50.093186],[14.765993,50.09347],[14.76559,50.094086],[14.76551,50.09415],[14.764974,50.094836],[14.764245,50.095734],[14.763776,50.096349],[14.763507,50.096635],[14.764738,50.09698],[14.765676,50.097232],[14.767178,50.097687]]]},"properties":{"typ":"ku","kod":771422,"nazev":"Tuklaty","geom_src":"OriginalniHranice"}},{"type":"Feature","geometry":{"type":"Polygon","coordinates":[[[14.762425,50.102521],[14.763051,50.102719],[14.763052,50.102588],[14.763171,50.102438],[14.763329,50.102096],[14.763365,50.101722],[14.763271,50.101149],[14.763114,50.100741],[14.762718,50.100429],[14.761923,50.099886],[14.761182,50.099398],[14.761412,50.099201],[14.761637,50.099054],[14.761635,50.099063],[14.764229,50.099247],[14.764199,50.099305],[14.764445,50.099205],[14.764607,50.099102],[14.764844,50.099044],[14.765169,50.098843],[14.765645,50.098623],[14.765912,50.098475],[14.766372,50.098151],[14.766353,50.098146],[14.766422,50.098037],[14.766846,50.097895],[14.767167,50.097702],[14.767178,50.097687],[14.765676,50.097232],[14.764738,50.09698],[14.763507,50.096635],[14.763776,50.096349],[14.764245,50.095734],[14.764974,50.094836],[14.76551,50.09415],[14.76559,50.094086],[14.765993,50.09347],[14.766228,50.093186],[14.767051,50.092062],[14.765538,50.091608],[14.76568,50.091521],[14.76603,50.09136],[14.766609,50.091],[14.766692,50.0908],[14.766732,50.090755],[14.763558,50.090152],[14.763049,50.090006],[14.762836,50.089913],[14.762097,50.089513],[14.763057,50.088659],[14.763709,50.088318],[14.763428,50.088047],[14.763248,50.087838],[14.76014,50.086448],[14.760084,50.086444],[14.760092,50.086382],[14.760085,50.08627],[14.756949,50.086596],[14.755962,50.085083],[14.755925,50.085054],[14.756447,50.084776],[14.75598,50.084504],[14.7526,50.083337],[14.752119,50.082798],[14.751517,50.082943],[14.751007,50.083042],[14.750295,50.083132],[14.749996,50.083154],[14.744214,50.082728],[14.744186,50.082987],[14.744122,50.083301],[14.744063,50.083431],[14.74352,50.083372],[14.743257,50.083322],[14.742773,50.083206],[14.741936,50.083037],[14.741147,50.082915],[14.739417,50.082719],[14.739272,50.083022],[14.739072,50.083716],[14.738532,50.083636],[14.737813,50.083636],[14.737433,50.083626],[14.73731,50.083645],[14.737212,50.08363],[14.736949,50.083635],[14.73676,50.083605],[14.736679,50.082996],[14.736581,50.082463],[14.736593,50.081878],[14.736308,50.081858],[14.736305,50.081767],[14.735187,50.081729],[14.734476,50.081738],[14.734447,50.081964],[14.733568,50.082011],[14.73336,50.082463],[14.733346,50.082578],[14.73322,50.083014],[14.733186,50.083252],[14.733232,50.083742],[14.733291,50.083849],[14.733641,50.083848],[14.734903,50.083738],[14.734905,50.083897],[14.734778,50.084782],[14.734791,50.085137],[14.734143,50.085239],[14.733587,50.085367],[14.732886,50.085557],[14.732518,50.085682],[14.731968,50.085973],[14.731652,50.086129],[14.730858,50.086469],[14.730644,50.086684],[14.73052,50.086843],[14.730663,50.087142],[14.730925,50.087566],[14.73131,50.087907],[14.731701,50.088196],[14.732096,50.08836],[14.732393,50.088657],[14.732693,50.088929],[14.733168,50.08918],[14.734325,50.089895],[14.735167,50.090135],[14.735795,50.090271],[14.73564,50.090592],[14.735893,50.090634],[14.736019,50.090471],[14.73626,50.090431],[14.736525,50.090536],[14.736662,50.090706],[14.736872,50.090779],[14.737009,50.090928],[14.737129,50.091137],[14.737345,50.0912],[14.737505,50.091183],[14.737681,50.091246],[14.737724,50.09136],[14.737717,50.091413],[14.737897,50.091665],[14.73793,50.091762],[14.737654,50.091887],[14.737722,50.092063],[14.73812,50.092312],[14.738461,50.092489],[14.738351,50.092501],[14.73817,50.092662],[14.737989,50.092802],[14.738186,50.092859],[14.737761,50.093093],[14.737292,50.093615],[14.736972,50.093845],[14.73645,50.09415],[14.736349,50.094186],[14.736321,50.094249],[14.736308,50.094326],[14.736504,50.094346],[14.736887,50.094406],[14.737562,50.094644],[14.737995,50.094731],[14.738222,50.094845],[14.738421,50.094905],[14.738845,50.09501],[14.739657,50.095385],[14.739975,50.09548],[14.740469,50.095658],[14.741254,50.095848],[14.741919,50.095969],[14.742609,50.096042],[14.74311,50.096123],[14.743389,50.096152],[14.743792,50.096209],[14.74439,50.096347],[14.744847,50.096422],[14.745096,50.09645],[14.745655,50.096486],[14.747035,50.096683],[14.747557,50.096764],[14.748325,50.096922],[14.74911,50.097133],[14.749574,50.097241],[14.752455,50.098053],[14.753707,50.098328],[14.754043,50.098389],[14.754076,50.098351],[14.754916,50.098538],[14.755768,50.098713],[14.757025,50.09892],[14.757034,50.09888],[14.759034,50.09913],[14.75942,50.099077],[14.75947,50.099317],[14.759393,50.09976],[14.759398,50.099971],[14.759526,50.100355],[14.759792,50.100729],[14.760917,50.102063],[14.761026,50.102221],[14.761927,50.102436],[14.762425,50.102521]]]},"properties":{"typ":"zsj","kod":171417,"nazev":"Tlustovousy","geom_src":"OriginalniHranice"}},{"type":"Feature","geometry":{"type":"Polygon","coordinates":[[[14.767178,50.097687],[14.767196,50.097662],[14.767349,50.097718],[14.767612,50.097268],[14.768099,50.096688],[14.768254,50.096459],[14.768082,50.096424],[14.768281,50.096011],[14.76845,50.095565],[14.774207,50.096975],[14.774492,50.096495],[14.776274,50.096933],[14.776409,50.096194],[14.776436,50.095942],[14.776699,50.095157],[14.777091,50.095203],[14.777646,50.095382],[14.778337,50.095506],[14.778939,50.095642],[14.779847,50.09569],[14.779986,50.094925],[14.780108,50.094477],[14.77972,50.094423],[14.779028,50.094291],[14.778675,50.094211],[14.778058,50.094045],[14.777123,50.093926],[14.777395,50.093021],[14.777652,50.092228],[14.777769,50.091761],[14.777965,50.091287],[14.778048,50.090995],[14.777013,50.090783],[14.775907,50.090543],[14.7762,50.089122],[14.776347,50.085959],[14.776585,50.085992],[14.776599,50.085914],[14.777783,50.086061],[14.777755,50.08613],[14.778013,50.086181],[14.778486,50.08631],[14.778486,50.087118],[14.779027,50.087101],[14.779039,50.086829],[14.779035,50.08651],[14.779055,50.086492],[14.779051,50.085865],[14.778941,50.085046],[14.778861,50.084571],[14.778855,50.084219],[14.77844,50.083956],[14.778123,50.083812],[14.777748,50.083709],[14.777251,50.083589],[14.777355,50.082929],[14.777396,50.082561],[14.77748,50.08207],[14.777484,50.081567],[14.777829,50.081549],[14.777906,50.0815],[14.777824,50.081514],[14.776724,50.08156],[14.775758,50.081514],[14.774831,50.081419],[14.774415,50.081354],[14.774047,50.081266],[14.773803,50.081169],[14.775765,50.077368],[14.776035,50.077379],[14.776353,50.077413],[14.776743,50.077442],[14.777933,50.077513],[14.778194,50.077222],[14.779682,50.073922],[14.779693,50.073893],[14.779544,50.073722],[14.778987,50.073025],[14.77892,50.07297],[14.77808,50.072812],[14.77791,50.07276],[14.777836,50.07268],[14.777814,50.072585],[14.777832,50.071898],[14.777809,50.071799],[14.777929,50.071581],[14.777637,50.071582],[14.775186,50.071152],[14.77519,50.070998],[14.775133,50.071003],[14.774952,50.070984],[14.774216,50.070965],[14.773941,50.071013],[14.773362,50.07102],[14.772844,50.070982],[14.772827,50.070947],[14.772209,50.070998],[14.771805,50.071015],[14.771722,50.071],[14.770396,50.0712],[14.769787,50.071278],[14.768256,50.071384],[14.768116,50.071078],[14.764535,50.071204],[14.76461,50.072043],[14.761472,50.072132],[14.761322,50.071972],[14.761254,50.071819],[14.759949,50.071597],[14.758114,50.071311],[14.758116,50.071287],[14.757483,50.07118],[14.75699,50.071128],[14.756224,50.071035],[14.755862,50.070952],[14.755483,50.070894],[14.754841,50.070861],[14.754465,50.070885],[14.753837,50.07098],[14.752959,50.071166],[14.751848,50.071292],[14.751112,50.071342],[14.750896,50.071327],[14.750789,50.071288],[14.750676,50.071258],[14.749578,50.071046],[14.748634,50.070823],[14.748509,50.070799],[14.747835,50.070544],[14.747712,50.070504],[14.747221,50.070942],[14.74665,50.070631],[14.74588,50.07017],[14.744847,50.070295],[14.744475,50.070272],[14.742956,50.070131],[14.742176,50.070087],[14.741879,50.070117],[14.740968,50.070299],[14.740623,50.070416],[14.739318,50.070624],[14.739118,50.070664],[14.738893,50.070722],[14.738515,50.070881],[14.738498,50.070995],[14.738561,50.071184],[14.738722,50.072437],[14.73883,50.072978],[14.738834,50.073331],[14.738805,50.073629],[14.740158,50.073873],[14.740142,50.07401],[14.740163,50.074035],[14.740247,50.074086],[14.740364,50.074142],[14.740511,50.074184],[14.741282,50.074349],[14.741277,50.074454],[14.741231,50.074549],[14.741218,50.07475],[14.741217,50.075191],[14.741229,50.075475],[14.741383,50.07548],[14.74142,50.075813],[14.741486,50.075962],[14.741589,50.076112],[14.741733,50.077133],[14.742028,50.077135],[14.742104,50.077792],[14.742182,50.078171],[14.742216,50.07854],[14.742546,50.078532],[14.742532,50.07859],[14.743222,50.078554],[14.744,50.078556],[14.744015,50.078608],[14.744298,50.078641],[14.744247,50.079258],[14.744273,50.079488],[14.744963,50.07954],[14.746344,50.079594],[14.746389,50.079443],[14.747058,50.079494],[14.747267,50.079521],[14.747585,50.079585],[14.748109,50.079722],[14.748627,50.07984],[14.749092,50.079945],[14.749736,50.08007],[14.750123,50.080163],[14.749789,50.080688],[14.749438,50.081294],[14.749394,50.081402],[14.749316,50.081402],[14.749157,50.081822],[14.74913,50.081978],[14.747966,50.081885],[14.746886,50.081776],[14.746014,50.081645],[14.745824,50.082065],[14.744279,50.081928],[14.74416,50.082594],[14.744222,50.08265],[14.744214,50.082728],[14.749996,50.083154],[14.750295,50.083132],[14.751007,50.083042],[14.751517,50.082943],[14.752119,50.082798],[14.7526,50.083337],[14.75598,50.084504],[14.756447,50.084776],[14.755925,50.085054],[14.755962,50.085083],[14.756949,50.086596],[14.760085,50.08627],[14.760092,50.086382],[14.760084,50.086444],[14.76014,50.086448],[14.763248,50.087838],[14.763428,50.088047],[14.763709,50.088318],[14.763057,50.088659],[14.762097,50.089513],[14.762836,50.089913],[14.763049,50.090006],[14.763558,50.090152],[14.766732,50.090755],[14.766692,50.0908],[14.766609,50.091],[14.76603,50.09136],[14.76568,50.091521],[14.765538,50.091608],[14.767051,50.092062],[14.766228,50.093186],[14.765993,50.09347],[14.76559,50.094086],[14.76551,50.09415],[14.764974,50.094836],[14.764245,50.095734],[14.763776,50.096349],[14.763507,50.096635],[14.764738,50.09698],[14.765676,50.097232],[14.767178,50.097687]]]},"properties":{"typ":"zsj","kod":171425,"nazev":"Tuklaty","geom_src":"OriginalniHranice"}}]}