{"type":"FeatureCollection","features":[{"type":"Feature","geometry":{"type":"MultiLineString","coordinates":[[[14.768089,50.085614],[14.767515,50.085762]],[[14.769583,50.084929],[14.76911,50.085146],[14.768361,50.085513]],[[14.771155,50.084802],[14.771053,50.084781],[14.770938,50.084772]],[[14.770938,50.084772],[14.770299,50.084773],[14.770114,50.084783],[14.769854,50.084829],[14.769686,50.084883],[14.769583,50.084929]],[[14.768361,50.085513],[14.768089,50.085614]]]},"properties":{"kod":766020,"nazev":"Akátová"}},{"type":"Feature","geometry":{"type":"MultiLineString","coordinates":[[[14.765426,50.081979],[14.765371,50.081911]],[[14.767124,50.083828],[14.767038,50.083748],[14.766672,50.083468],[14.766498,50.083313],[14.765476,50.082039]],[[14.767219,50.085385],[14.767342,50.084603]],[[14.765476,50.082039],[14.765426,50.081979]],[[14.767342,50.084603],[14.767338,50.084438],[14.767268,50.084081],[14.767215,50.083952],[14.767124,50.083828]],[[14.767515,50.085762],[14.767508,50.085692],[14.767484,50.085639]],[[14.767484,50.085639],[14.767436,50.085599],[14.767354,50.085554],[14.767286,50.085498],[14.767234,50.085434],[14.767219,50.085385]]]},"properties":{"kod":766038,"nazev":"Hlavní"}},{"type":"Feature","geometry":{"type":"MultiLineString","coordinates":[[[14.77004,50.079648],[14.769988,50.079594],[14.76995,50.079513],[14.769963,50.079009]],[[14.769973,50.077535],[14.769969,50.077351]],[[14.769963,50.079009],[14.769973,50.077535]]]},"properties":{"kod":1933957,"nazev":"Járy Cimrmana"}},{"type":"Feature","geometry":{"type":"MultiLineString","coordinates":[[[14.767124,50.083828],[14.767305,50.08377],[14.767443,50.08374],[14.767639,50.083721],[14.767755,50.083719]],[[14.767755,50.083719],[14.768025,50.083765],[14.768586,50.083825]]]},"properties":{"kod":758256,"nazev":"K Bytovkám"}},{"type":"Feature","geometry":{"type":"LineString","coordinates":[[14.755244,50.09113],[14.755399,50.09056]]},"properties":{"kod":932337,"nazev":"K Farmě"}},{"type":"Feature","geometry":{"type":"MultiLineString","coordinates":[[[14.758129,50.093972],[14.757936,50.094289]],[[14.758129,50.093972],[14.758487,50.093367],[14.758645,50.092945],[14.758754,50.092698],[14.758897,50.092508]]]},"properties":{"kod":766046,"nazev":"K Výmole"}},{"type":"Feature","geometry":{"type":"LineString","coordinates":[[14.752944,50.090712],[14.753442,50.08895]]},"properties":{"kod":806935,"nazev":"K Zahrádkám"}},{"type":"Feature","geometry":{"type":"MultiLineString","coordinates":[[[14.765476,50.082039],[14.76503,50.082],[14.76438,50.081924]],[[14.743242,50.074809],[14.741298,50.074388]],[[14.761241,50.082035],[14.761129,50.082009],[14.761062,50.081985],[14.760894,50.081895],[14.760094,50.081252],[14.759971,50.081177],[14.759886,50.081138],[14.759603,50.081053],[14.756759,50.080357],[14.756394,50.080249],[14.755992,50.080094],[14.755372,50.07984],[14.754329,50.079438],[14.752167,50.078691],[14.750306,50.078057],[14.74758,50.07705],[14.747367,50.076963],[14.747182,50.076874],[14.744099,50.075041],[14.744005,50.074999],[14.743865,50.07495],[14.743242,50.074809]],[[14.76438,50.081924],[14.76374,50.081854],[14.763598,50.081843],[14.763448,50.081842],[14.763338,50.081848],[14.762062,50.081979],[14.761526,50.082039],[14.761358,50.082045],[14.761241,50.082035]]]},"properties":{"kod":1488147,"nazev":"K Úvalům"}},{"type":"Feature","geometry":{"type":"MultiLineString","coordinates":[[[14.7677,50.086278],[14.767574,50.086169],[14.767507,50.086077],[14.767491,50.085982],[14.767515,50.085762]],[[14.767053,50.087209],[14.767246,50.087118],[14.767424,50.087005],[14.767529,50.086914],[14.767628,50.08679],[14.76767,50.086717],[14.767732,50.08657],[14.767759,50.086448],[14.767755,50.086368],[14.7677,50.086278]],[[14.766263,50.087508],[14.767053,50.087209]],[[14.765423,50.087796],[14.766108,50.087564]],[[14.766108,50.087564],[14.766263,50.087508]]]},"properties":{"kod":766054,"nazev":"Ke Hřišti"}},{"type":"Feature","geometry":{"type":"MultiLineString","coordinates":[[[14.758897,50.092508],[14.758972,50.092007],[14.758968,50.091929],[14.758926,50.091828],[14.758878,50.09175],[14.75872,50.091583],[14.758667,50.091482]],[[14.759901,50.094314],[14.759725,50.094095],[14.759285,50.093691],[14.759207,50.0936],[14.759165,50.093534],[14.759123,50.093427],[14.758914,50.092712],[14.758895,50.092601],[14.758897,50.092508]]]},"properties":{"kod":766062,"nazev":"Ke Mlýnu"}},{"type":"Feature","geometry":{"type":"MultiLineString","coordinates":[[[14.758494,50.091452],[14.758358,50.091312],[14.758155,50.091005]],[[14.758119,50.090814],[14.758196,50.09042]],[[14.758196,50.09042],[14.757977,50.090293],[14.757803,50.090255],[14.757616,50.090226]],[[14.756356,50.089361],[14.75627,50.089324],[14.7554,50.089272],[14.755031,50.089238],[14.754775,50.089209],[14.754523,50.089161]],[[14.753442,50.08895],[14.753378,50.088936]],[[14.758119,50.090814],[14.75812,50.090908]],[[14.75812,50.090908],[14.758155,50.091005]],[[14.754523,50.089161],[14.753667,50.089],[14.753442,50.08895]],[[14.757616,50.090226],[14.75729,50.090048],[14.756808,50.089732],[14.756356,50.089361]]]},"properties":{"kod":766071,"nazev":"Ke Skalce"}},{"type":"Feature","geometry":{"type":"MultiLineString","coordinates":[[[14.766919,50.085551],[14.767219,50.085385]],[[14.766919,50.085551],[14.766756,50.085641],[14.766334,50.085851]]]},"properties":{"kod":766089,"nazev":"Ke Školce"}},{"type":"Feature","geometry":{"type":"MultiLineString","coordinates":[[[14.768087,50.079422],[14.7681,50.080818]],[[14.768098,50.079003],[14.768087,50.079422]]]},"properties":{"kod":4175239,"nazev":"Kolínská"}},{"type":"Feature","geometry":{"type":"MultiLineString","coordinates":[[[14.770972,50.081304],[14.772438,50.081542]],[[14.772438,50.081542],[14.773726,50.081587]]]},"properties":{"kod":766097,"nazev":"Liliová"}},{"type":"Feature","geometry":{"type":"LineString","coordinates":[[14.758777,50.089578],[14.758779,50.089366],[14.758798,50.089285],[14.758832,50.089192],[14.758971,50.088944],[14.759123,50.088603],[14.759145,50.08846],[14.759131,50.088342],[14.75915,50.088233],[14.7592,50.088072],[14.759284,50.087899],[14.759398,50.087747],[14.759492,50.087649]]},"properties":{"kod":766101,"nazev":"Na Kopečku"}},{"type":"Feature","geometry":{"type":"LineString","coordinates":[[14.758129,50.093972],[14.756058,50.093611],[14.756233,50.093213]]},"properties":{"kod":766119,"nazev":"Na Patnáctém"}},{"type":"Feature","geometry":{"type":"MultiLineString","coordinates":[[[14.770198,50.083328],[14.770374,50.082873]],[[14.770661,50.08209],[14.770972,50.081304]],[[14.770374,50.082873],[14.770661,50.08209]],[[14.769583,50.084929],[14.769689,50.084785],[14.770198,50.083328]],[[14.770972,50.081304],[14.77133,50.08037]]]},"properties":{"kod":758493,"nazev":"Na Rafandě"}},{"type":"Feature","geometry":{"type":"LineString","coordinates":[[14.77133,50.08037],[14.771148,50.08039],[14.769952,50.080468],[14.768844,50.080525],[14.76844,50.080565]]},"properties":{"kod":766127,"nazev":"Na Rozkoši"}},{"type":"Feature","geometry":{"type":"MultiLineString","coordinates":[[[14.75812,50.090908],[14.757894,50.090869],[14.75735,50.090813],[14.755399,50.09056]],[[14.755399,50.09056],[14.754128,50.090354]]]},"properties":{"kod":806943,"nazev":"Na Statku"}},{"type":"Feature","geometry":{"type":"MultiLineString","coordinates":[[[14.768737,50.085572],[14.768906,50.085495],[14.769461,50.085066],[14.769583,50.084929]],[[14.767994,50.086246],[14.768165,50.086105],[14.768205,50.086006],[14.768219,50.085924],[14.768453,50.085737],[14.768737,50.085572]]]},"properties":{"kod":766135,"nazev":"Na Valech"}},{"type":"Feature","geometry":{"type":"MultiLineString","coordinates":[[[14.774598,50.081409],[14.774283,50.081336],[14.773791,50.081189],[14.77327,50.080993],[14.772973,50.080869],[14.772513,50.080698]],[[14.772513,50.080698],[14.771621,50.080457],[14.77133,50.08037]]]},"properties":{"kod":766143,"nazev":"Na Vyhlídce"}},{"type":"Feature","geometry":{"type":"LineString","coordinates":[[14.772356,50.082356],[14.770661,50.08209]]},"properties":{"kod":766151,"nazev":"Ořechová"}},{"type":"Feature","geometry":{"type":"LineString","coordinates":[[14.754322,50.089786],[14.755398,50.089932]]},"properties":{"kod":932159,"nazev":"Pod Skalkou"}},{"type":"Feature","geometry":{"type":"MultiLineString","coordinates":[[[14.767828,50.077439],[14.767803,50.078807],[14.767831,50.078861],[14.767897,50.078923],[14.767963,50.078962],[14.768098,50.079003]],[[14.768788,50.079008],[14.769963,50.079009]],[[14.768098,50.079003],[14.768788,50.079008]]]},"properties":{"kod":4175191,"nazev":"Přední čtvera"}},{"type":"Feature","geometry":{"type":"MultiLineString","coordinates":[[[14.753942,50.090892],[14.754128,50.090354]],[[14.754128,50.090354],[14.754322,50.089786]],[[14.754322,50.089786],[14.754523,50.089161]]]},"properties":{"kod":806951,"nazev":"Příčná"}},{"type":"Feature","geometry":{"type":"MultiLineString","coordinates":[[[14.774725,50.083587],[14.774451,50.0837],[14.773628,50.083999],[14.7726,50.084362],[14.772091,50.084537],[14.77193,50.084585]],[[14.77193,50.084585],[14.771301,50.084732],[14.771216,50.08476],[14.771155,50.084802]]]},"properties":{"kod":766160,"nazev":"Rostoklatská"}},{"type":"Feature","geometry":{"type":"LineString","coordinates":[[14.768788,50.079008],[14.76882,50.077481]]},"properties":{"kod":4175212,"nazev":"Rovná"}},{"type":"Feature","geometry":{"type":"LineString","coordinates":[[14.770374,50.082873],[14.772077,50.083126]]},"properties":{"kod":766178,"nazev":"Růžová"}},{"type":"Feature","geometry":{"type":"MultiLineString","coordinates":[[[14.761241,50.082035],[14.760835,50.08223],[14.760491,50.082449],[14.760398,50.08252]],[[14.760398,50.08252],[14.760303,50.082615],[14.760277,50.082653],[14.760208,50.082814],[14.760133,50.082903],[14.760053,50.082984],[14.759845,50.08315],[14.759622,50.083283],[14.758947,50.083594]]]},"properties":{"kod":807508,"nazev":"Sadová"}},{"type":"Feature","geometry":{"type":"MultiLineString","coordinates":[[[14.769058,50.086674],[14.768742,50.08653]],[[14.769643,50.086742],[14.769217,50.086707],[14.769058,50.086674]],[[14.770938,50.084772],[14.770974,50.084852],[14.770994,50.084998],[14.770958,50.085257],[14.770693,50.085846],[14.770451,50.086281],[14.770352,50.086398]],[[14.767994,50.086246],[14.7677,50.086278]],[[14.768742,50.08653],[14.768516,50.086426],[14.768154,50.086286],[14.767994,50.086246]],[[14.770352,50.086398],[14.770252,50.086515],[14.770143,50.086588],[14.769925,50.086668],[14.769643,50.086742]]]},"properties":{"kod":758485,"nazev":"Sluneční"}},{"type":"Feature","geometry":{"type":"MultiLineString","coordinates":[[[14.766555,50.081519],[14.766813,50.08142],[14.767861,50.080975],[14.7681,50.080818]],[[14.765426,50.081979],[14.765535,50.081943],[14.766033,50.081717],[14.766555,50.081519]],[[14.771046,50.079156],[14.770936,50.079183],[14.77004,50.079648]],[[14.77004,50.079648],[14.769055,50.080155],[14.76864,50.080377],[14.76844,50.080565]],[[14.7681,50.080818],[14.76844,50.080565]]]},"properties":{"kod":766186,"nazev":"Spojovací"}},{"type":"Feature","geometry":{"type":"MultiLineString","coordinates":[[[14.767053,50.087209],[14.766676,50.086858]],[[14.766676,50.086858],[14.766606,50.086805],[14.76633,50.086636],[14.765964,50.086395]]]},"properties":{"kod":766194,"nazev":"Sportovní"}},{"type":"Feature","geometry":{"type":"MultiLineString","coordinates":[[[14.77133,50.08037],[14.771289,50.08028],[14.771046,50.079156]],[[14.77066,50.077115],[14.770648,50.077194]],[[14.770648,50.077194],[14.770645,50.077244],[14.771046,50.079156]]]},"properties":{"kod":766208,"nazev":"Topolová"}},{"type":"Feature","geometry":{"type":"MultiLineString","coordinates":[[[14.758667,50.091482],[14.758879,50.091409],[14.759062,50.091318],[14.759103,50.09129],[14.759136,50.091239],[14.75914,50.091197],[14.759089,50.091023]],[[14.758878,50.090347],[14.758744,50.089762],[14.75875,50.089647],[14.758777,50.089578]],[[14.758989,50.090782],[14.758935,50.090617],[14.758878,50.090347]],[[14.758777,50.089578],[14.758825,50.089544],[14.758932,50.089508],[14.759127,50.089486],[14.759278,50.089484],[14.759444,50.089495],[14.75956,50.089517],[14.759896,50.089622]],[[14.759089,50.091023],[14.758989,50.090782]]]},"properties":{"kod":766216,"nazev":"Tuklatská"}},{"type":"Feature","geometry":{"type":"LineString","coordinates":[[14.767342,50.084603],[14.767599,50.084701],[14.767809,50.084824],[14.767903,50.084897]]},"properties":{"kod":766224,"nazev":"U Lávky"}},{"type":"Feature","geometry":{"type":"MultiLineString","coordinates":[[[14.76882,50.077481],[14.769607,50.077521]],[[14.767828,50.077439],[14.767384,50.077419]],[[14.769607,50.077521],[14.769973,50.077535]],[[14.76882,50.077481],[14.767828,50.077439]]]},"properties":{"kod":4175255,"nazev":"U Trati"}},{"type":"Feature","geometry":{"type":"LineString","coordinates":[[14.773726,50.081587],[14.7737,50.081863],[14.77362,50.082343],[14.773266,50.083242],[14.773207,50.083264],[14.772564,50.083197],[14.772013,50.083955],[14.771838,50.084253],[14.771812,50.084345],[14.771814,50.084404],[14.771854,50.084512],[14.77193,50.084585]]},"properties":{"kod":766259,"nazev":"V Jezírkách"}},{"type":"Feature","geometry":{"type":"MultiLineString","coordinates":[[[14.766555,50.081519],[14.766733,50.081668],[14.766824,50.081767]],[[14.766824,50.081767],[14.766837,50.081877],[14.766931,50.082177],[14.76715,50.082739],[14.767627,50.082984]],[[14.767627,50.082984],[14.768313,50.08295],[14.768456,50.082934]],[[14.767755,50.083719],[14.767627,50.082984]],[[14.76817,50.081597],[14.766824,50.081767]],[[14.76817,50.081597],[14.768638,50.08153]],[[14.768456,50.082934],[14.768818,50.082923]],[[14.768456,50.082934],[14.768335,50.082146],[14.76817,50.081597]]]},"properties":{"kod":932116,"nazev":"V Obůrkách"}},{"type":"Feature","geometry":{"type":"MultiLineString","coordinates":[[[14.754159,50.090931],[14.755244,50.09113]],[[14.755244,50.09113],[14.756943,50.091441],[14.757427,50.091489],[14.757868,50.091501]],[[14.752859,50.090697],[14.752944,50.090712]],[[14.752944,50.090712],[14.753942,50.090892]],[[14.753942,50.090892],[14.754159,50.090931]],[[14.757868,50.091501],[14.758494,50.091452]],[[14.758494,50.091452],[14.758605,50.091462],[14.758667,50.091482]]]},"properties":{"kod":766232,"nazev":"Úvalská"}},{"type":"Feature","geometry":{"type":"MultiLineString","coordinates":[[[14.770938,50.084772],[14.770928,50.084718],[14.770941,50.084612],[14.770972,50.084436],[14.771018,50.084318]],[[14.771018,50.084318],[14.771087,50.084121],[14.771149,50.084023]],[[14.772077,50.083126],[14.771438,50.083652],[14.771316,50.083781],[14.771149,50.084023]],[[14.772356,50.082356],[14.772403,50.081689],[14.772438,50.081542]],[[14.772438,50.081542],[14.772469,50.081338],[14.772513,50.080698]],[[14.772077,50.083126],[14.772306,50.082875],[14.772356,50.082356]]]},"properties":{"kod":766241,"nazev":"Úvozová"}}]}